FENGYUN 1C DEB          
1 29977U 99025LB  17345.60198184  .00000410  00000-0  29801-3 0  9994
2 29977  98.4334  38.3161 0139462 181.9340 335.8880 13.96647913554851
